start=new Date('2022-09-29T00:00:00.000Z').valueOf();
sats=[{"LAUNCH_DATE":"2020-09-03","REF_FRAME":"TEME","BSTAR":"0.00004919300000","TIME_SYSTEM":"UTC","TLE_LINE1":"1 46371U 20062AY  22271.62291434  .00000451  00000-0  49193-4 0  9996","TLE_LINE2":"2 46371  53.0569 244.3071 0001751  68.1663 291.9513 15.06389328114973","PERIOD":"95.593","SEMIMAJOR_AXIS":"6925.381","CENTER_NAME":"EARTH","CLASSIFICATION_TYPE":"U","MEAN_MOTION":"15.06389328","REV_AT_EPOCH":"11497","COUNTRY_CODE":"US","OBJECT_NAME":"STARLINK-1688","ELEMENT_SET_NO":"999","MEAN_ELEMENT_THEORY":"SGP4","EPHEMERIS_TYPE":"0","APOAPSIS":"548.459","SITE":"AFETR","INCLINATION":"53.0569","ARG_OF_PERICENTER":"68.1663","OBJECT_ID":"2020-062AY","DECAY_DATE":null,"OBJECT_TYPE":"PAYLOAD","GP_ID":"213763435","PERIAPSIS":"546.034","RCS_SIZE":"LARGE","EPOCH":"2022-09-28T14:56:59.798976","NORAD_CAT_ID":"46371","RA_OF_ASC_NODE":"244.3071","FILE":"3586258","MEAN_ANOMALY":"291.9513","MEAN_MOTION_DOT":"0.00000451","ECCENTRICITY":"0.00017510","MEAN_MOTION_DDOT":"0.0000000000000"},{"TIME_SYSTEM":"UTC","BSTAR":"0.00012491000000","REF_FRAME":"TEME","LAUNCH_DATE":"2020-09-03","TLE_LINE2":"2 46372  53.0548 265.4430 0001518  64.3896 295.7250 15.06393266114652","PERIOD":"95.593","TLE_LINE1":"1 46372U 20062AZ  22271.36673735  .00001579  00000-0  12491-3 0  9998","CLASSIFICATION_TYPE":"U","MEAN_MOTION":"15.06393266","CENTER_NAME":"EARTH","SEMIMAJOR_AXIS":"6925.369","REV_AT_EPOCH":"11465","COUNTRY_CODE":"US","ELEMENT_SET_NO":"999","OBJECT_NAME":"STARLINK-1689","MEAN_ELEMENT_THEORY":"SGP4","APOAPSIS":"548.285","EPHEMERIS_TYPE":"0","ARG_OF_PERICENTER":"64.3896","INCLINATION":"53.0548","SITE":"AFETR","DECAY_DATE":null,"OBJECT_ID":"2020-062AZ","OBJECT_TYPE":"PAYLOAD","NORAD_CAT_ID":"46372","EPOCH":"2022-09-28T08:48:06.107040","RCS_SIZE":"LARGE","PERIAPSIS":"546.183","GP_ID":"213707787","MEAN_MOTION_DOT":"0.00001579","MEAN_ANOMALY":"295.7250","FILE":"3586039","RA_OF_ASC_NODE":"265.4430","ECCENTRICITY":"0.00015180","MEAN_MOTION_DDOT":"0.0000000000000"},{"ECCENTRICITY":"0.00014820","MEAN_MOTION_DDOT":"0.0000000000000","FILE":"3586258","RA_OF_ASC_NODE":"193.6040","MEAN_ANOMALY":"261.7316","MEAN_MOTION_DOT":"0.00000914","GP_ID":"213762437","RCS_SIZE":"LARGE","PERIAPSIS":"546.216","EPOCH":"2022-09-28T18:41:14.978976","NORAD_CAT_ID":"46374","OBJECT_TYPE":"PAYLOAD","OBJECT_ID":"2020-062BB","DECAY_DATE":null,"SITE":"AFETR","INCLINATION":"53.0557","ARG_OF_PERICENTER":"98.3841","EPHEMERIS_TYPE":"0","APOAPSIS":"548.269","MEAN_ELEMENT_THEORY":"SGP4","OBJECT_NAME":"STARLINK-1711","ELEMENT_SET_NO":"999","COUNTRY_CODE":"US","REV_AT_EPOCH":"11569","CENTER_NAME":"EARTH","SEMIMAJOR_AXIS":"6925.378","CLASSIFICATION_TYPE":"U","MEAN_MOTION":"15.06390532","TLE_LINE1":"1 46374U 20062BB  22271.77864559  .00000914  00000-0  80283-4 0  9998","PERIOD":"95.593","TLE_LINE2":"2 46374  53.0557 193.6040 0001482  98.3841 261.7316 15.06390532115694","LAUNCH_DATE":"2020-09-03","REF_FRAME":"TEME","TIME_SYSTEM":"UTC","BSTAR":"0.00008028300000"},{"MEAN_MOTION_DDOT":"0.0000000000000","ECCENTRICITY":"0.00014830","RA_OF_ASC_NODE":"221.5003","FILE":"3586039","MEAN_MOTION_DOT":"0.00000517","MEAN_ANOMALY":"271.5349","PERIAPSIS":"546.146","RCS_SIZE":"LARGE","GP_ID":"213706300","NORAD_CAT_ID":"46375","EPOCH":"2022-09-28T03:06:24.200928","OBJECT_TYPE":"PAYLOAD","OBJECT_ID":"2020-062BC","DECAY_DATE":null,"SITE":"AFETR","ARG_OF_PERICENTER":"88.5810","INCLINATION":"53.0559","EPHEMERIS_TYPE":"0","APOAPSIS":"548.200","MEAN_ELEMENT_THEORY":"SGP4","ELEMENT_SET_NO":"999","OBJECT_NAME":"STARLINK-1724","COUNTRY_CODE":"US","REV_AT_EPOCH":"11524","CLASSIFICATION_TYPE":"U","MEAN_MOTION":"15.06413335","CENTER_NAME":"EARTH","SEMIMAJOR_AXIS":"6925.308","PERIOD":"95.591","TLE_LINE2":"2 46375  53.0559 221.5003 0001483  88.5810 271.5349 15.06413335115248","TLE_LINE1":"1 46375U 20062BC  22271.12944677  .00000517  00000-0  53568-4 0  9993","REF_FRAME":"TEME","LAUNCH_DATE":"2020-09-03","BSTAR":"0.00005356800000","TIME_SYSTEM":"UTC"},{"MEAN_MOTION_DDOT":"0.0000000000000","ECCENTRICITY":"0.00013230","MEAN_ANOMALY":"266.9638","MEAN_MOTION_DOT":"0.00001975","RA_OF_ASC_NODE":"221.4524","FILE":"3586039","EPOCH":"2022-09-28T03:27:37.862208","NORAD_CAT_ID":"46376","GP_ID":"213707550","RCS_SIZE":"LARGE","PERIAPSIS":"546.279","OBJECT_TYPE":"PAYLOAD","DECAY_DATE":null,"OBJECT_ID":"2020-062BD","INCLINATION":"53.0548","ARG_OF_PERICENTER":"93.1502","SITE":"AFETR","APOAPSIS":"548.112","EPHEMERIS_TYPE":"0","MEAN_ELEMENT_THEORY":"SGP4","OBJECT_NAME":"STARLINK-1742","ELEMENT_SET_NO":"999","COUNTRY_CODE":"US","REV_AT_EPOCH":"11524","CENTER_NAME":"EARTH","SEMIMAJOR_AXIS":"6925.330","MEAN_MOTION":"15.06405949","CLASSIFICATION_TYPE":"U","TLE_LINE1":"1 46376U 20062BD  22271.14418822  .00001975  00000-0  15144-3 0  9990","PERIOD":"95.592","TLE_LINE2":"2 46376  53.0548 221.4524 0001323  93.1502 266.9638 15.06405949115248","TIME_SYSTEM":"UTC","BSTAR":"0.00015144000000","LAUNCH_DATE":"2020-09-03","REF_FRAME":"TEME"},{"LAUNCH_DATE":"2020-09-03","REF_FRAME":"TEME","BSTAR":"0.00018399000000","TIME_SYSTEM":"UTC","TLE_LINE1":"1 46380U 20062BH  22271.70768536  .00002460  00000-0  18399-3 0  9992","PERIOD":"95.592","TLE_LINE2":"2 46380  53.0532 243.9323 0001642  70.2090 289.9076 15.06398900114983","SEMIMAJOR_AXIS":"6925.352","CENTER_NAME":"EARTH","MEAN_MOTION":"15.06398900","CLASSIFICATION_TYPE":"U","REV_AT_EPOCH":"11498","COUNTRY_CODE":"US","OBJECT_NAME":"STARLINK-1758","ELEMENT_SET_NO":"999","MEAN_ELEMENT_THEORY":"SGP4","EPHEMERIS_TYPE":"0","APOAPSIS":"548.354","SITE":"AFETR","INCLINATION":"53.0532","ARG_OF_PERICENTER":"70.2090","OBJECT_ID":"2020-062BH","DECAY_DATE":null,"OBJECT_TYPE":"PAYLOAD","GP_ID":"213763658","RCS_SIZE":"LARGE","PERIAPSIS":"546.080","EPOCH":"2022-09-28T16:59:04.015104","NORAD_CAT_ID":"46380","FILE":"3586258","RA_OF_ASC_NODE":"243.9323","MEAN_ANOMALY":"289.9076","MEAN_MOTION_DOT":"0.00002460","MEAN_MOTION_DDOT":"0.0000000000000","ECCENTRICITY":"0.00016420"},{"MEAN_MOTION":"15.06398936","CLASSIFICATION_TYPE":"U","CENTER_NAME":"EARTH","SEMIMAJOR_AXIS":"6925.352","REV_AT_EPOCH":"11527","REF_FRAME":"TEME","LAUNCH_DATE":"2020-09-03","BSTAR":"0.00022449000000","TIME_SYSTEM":"UTC","PERIOD":"95.592","TLE_LINE2":"2 46382  53.0552 220.8028 0001580  70.2967 289.8192 15.06398936115277","TLE_LINE1":"1 46382U 20062BK  22271.29162885  .00003064  00000-0  22449-3 0  9995","MEAN_ELEMENT_THEORY":"SGP4","EPHEMERIS_TYPE":"0","APOAPSIS":"548.311","COUNTRY_CODE":"US","ELEMENT_SET_NO":"999","OBJECT_NAME":"STARLINK-1769","OBJECT_TYPE":"PAYLOAD","SITE":"AFETR","ARG_OF_PERICENTER":"70.2967","INCLINATION":"53.0552","OBJECT_ID":"2020-062BK","DECAY_DATE":null,"FILE":"3586039","RA_OF_ASC_NODE":"220.8028","MEAN_MOTION_DOT":"0.00003064","MEAN_ANOMALY":"289.8192","MEAN_MOTION_DDOT":"0.0000000000000","ECCENTRICITY":"0.00015800","RCS_SIZE":"LARGE","PERIAPSIS":"546.123","GP_ID":"213706052","NORAD_CAT_ID":"46382","EPOCH":"2022-09-28T06:59:56.732640"},{"OBJECT_TYPE":"PAYLOAD","SITE":"AFETR","INCLINATION":"53.0541","ARG_OF_PERICENTER":"61.1176","OBJECT_ID":"2020-062BL","DECAY_DATE":null,"FILE":"3586258","RA_OF_ASC_NODE":"264.0750","MEAN_ANOMALY":"298.9995","MEAN_MOTION_DOT":"0.00001525","ECCENTRICITY":"0.00018100","MEAN_MOTION_DDOT":"0.0000000000000","GP_ID":"213762688","PERIAPSIS":"545.939","RCS_SIZE":"LARGE","EPOCH":"2022-09-28T16:13:56.506944","NORAD_CAT_ID":"46383","CENTER_NAME":"EARTH","SEMIMAJOR_AXIS":"6925.327","MEAN_MOTION":"15.06406906","CLASSIFICATION_TYPE":"U","REV_AT_EPOCH":"11469","LAUNCH_DATE":"2020-09-03","REF_FRAME":"TEME","TIME_SYSTEM":"UTC","BSTAR":"0.00012127000000","TLE_LINE1":"1 46383U 20062BL  22271.67634846  .00001525  00000-0  12127-3 0  9991","PERIOD":"95.592","TLE_LINE2":"2 46383  53.0541 264.0750 0001810  61.1176 298.9995 15.06406906114699","MEAN_ELEMENT_THEORY":"SGP4","EPHEMERIS_TYPE":"0","APOAPSIS":"548.446","COUNTRY_CODE":"US","OBJECT_NAME":"STARLINK-1770","ELEMENT_SET_NO":"999"},{"OBJECT_NAME":"STARLINK-1771","ELEMENT_SET_NO":"999","COUNTRY_CODE":"US","APOAPSIS":"548.232","EPHEMERIS_TYPE":"0","MEAN_ELEMENT_THEORY":"SGP4","TLE_LINE1":"1 46384U 20062BM  22271.41464496  .00001491  00000-0  11893-3 0  9997","TLE_LINE2":"2 46384  53.0533 265.2346 0001504  80.0267 280.0892 15.06407618114651","PERIOD":"95.592","TIME_SYSTEM":"UTC","BSTAR":"0.00011893000000","LAUNCH_DATE":"2020-09-03","REF_FRAME":"TEME","REV_AT_EPOCH":"11465","SEMIMAJOR_AXIS":"6925.325","CENTER_NAME":"EARTH","CLASSIFICATION_TYPE":"U","MEAN_MOTION":"15.06407618","EPOCH":"2022-09-28T09:57:05.324544","NORAD_CAT_ID":"46384","GP_ID":"213707053","PERIAPSIS":"546.149","RCS_SIZE":"LARGE","ECCENTRICITY":"0.00015040","MEAN_MOTION_DDOT":"0.0000000000000","MEAN_ANOMALY":"280.0892","MEAN_MOTION_DOT":"0.00001491","FILE":"3586039","RA_OF_ASC_NODE":"265.2346","DECAY_DATE":null,"OBJECT_ID":"2020-062BM","INCLINATION":"53.0533","ARG_OF_PERICENTER":"80.0267","SITE":"AFETR","OBJECT_TYPE":"PAYLOAD"},{"MEAN_ELEMENT_THEORY":"SGP4","EPHEMERIS_TYPE":"0","APOAPSIS":"548.180","COUNTRY_CODE":"US","OBJECT_NAME":"STARLINK-1644","ELEMENT_SET_NO":"999","CENTER_NAME":"EARTH","SEMIMAJOR_AXIS":"6925.385","MEAN_MOTION":"15.06388041","CLASSIFICATION_TYPE":"U","REV_AT_EPOCH":"10991","LAUNCH_DATE":"2020-10-06","REF_FRAME":"TEME","BSTAR":"-0.00001224900000","TIME_SYSTEM":"UTC","TLE_LINE1":"1 46532U 20070A   22271.81275146 -.00000464  00000-0 -12249-4 0  9995","PERIOD":"95.593","TLE_LINE2":"2 46532  53.0553  63.4481 0001343  74.8690 285.2448 15.06388041109913","FILE":"3586258","RA_OF_ASC_NODE":"63.4481","MEAN_ANOMALY":"285.2448","MEAN_MOTION_DOT":"-0.00000464","ECCENTRICITY":"0.00013430","MEAN_MOTION_DDOT":"0.0000000000000","GP_ID":"213763672","RCS_SIZE":"LARGE","PERIAPSIS":"546.320","EPOCH":"2022-09-28T19:30:21.726144","NORAD_CAT_ID":"46532","OBJECT_TYPE":"PAYLOAD","SITE":"AFETR","INCLINATION":"53.0553","ARG_OF_PERICENTER":"74.8690","OBJECT_ID":"2020-070A","DECAY_DATE":null}];
